NORAD_CAT_ID,OBJECT_NAME,OBJECT_TYPE,EPOCH,MEAN_MOTION,ECCENTRICITY,INCLINATION,RA_OF_ASC_NODE,ARG_OF_PERICENTER,MEAN_ANOMALY,BSTAR,MEAN_MOTION_DOT,MEAN_MOTION_DDOT,TLE_LINE0,TLE_LINE1,TLE_LINE2,SEMIMAJOR_AXIS,PERIOD,APOGEE,PERIGEE,DECAYED
53276.0,STARLINK-4174,PAYLOAD,2022-07-28 20:00:01,15.89783575,0.0040466,53.2175,22.4181,54.9283,338.3673,-0.0040518,-0.01320919,0.00049675,0 STARLINK-4174,1 53276U 22086AL  22209.83334491 -.01320919  49675-3 -40518-2 0  9992,2 53276  53.2175  22.4181 0040466  54.9283 338.3673 15.89783575  1302,6681.026,90.578,329.927,275.856,0.0
53276.0,STARLINK-4174,PAYLOAD,2022-07-29 06:00:00,15.88719984,0.0035578,53.2177,20.3048,55.0491,203.4933,-0.0046005,-0.01394961,0.00054325,0 STARLINK-4174,1 53276U 22086AL  22210.25001157 -.01394961  54325-3 -46005-2 0  9993,2 53276  53.2177  20.3048 0035578  55.0491 203.4933 15.88719984  1363,6684.0080000000025,90.639,329.653,282.092,0.0
53276.0,STARLINK-4174,PAYLOAD,2022-07-29 14:00:01,15.87817421,0.0032172,53.2177,18.6186,54.7688,310.7993,-0.0046898999999999,-0.01345069,0.00050411,0 STARLINK-4174,1 53276U 22086AL  22210.58334491 -.01345069  50411-3 -46899-2 0  9997,2 53276  53.2177  18.6186 0032172  54.7688 310.7993 15.87817421  1303,6686.54,90.691,329.917,286.893,0.0
53276.0,STARLINK-4174,PAYLOAD,2022-07-29 22:00:00,15.86920598,0.0028658,53.2173,16.9359,55.6523,55.8826,-0.0048113,-0.01307516,0.00047484,0 STARLINK-4174,1 53276U 22086AL  22210.91667824 -.01307516  47484-3 -48113-2 0  9995,2 53276  53.2173  16.9359 0028658  55.6523  55.8826 15.86920598  1473,6689.059,90.742,330.094,291.755,0.0
53276.0,STARLINK-4174,PAYLOAD,2022-07-30 06:00:00,15.86076236,0.0025671999999999,53.2175,15.2515,55.9273,160.5026,-0.005331,-0.01379141,0.00051934,0 STARLINK-4174,1 53276U 22086AL  22211.25001157 -.01379141  51934-3 -53310-2 0  9997,2 53276  53.2175  15.2515 0025672  55.9273 160.5026 15.86076236  1522,6691.433000000001,90.79,330.476,296.12,0.0
53276.0,STARLINK-4174,PAYLOAD,2022-07-30 14:00:01,15.85197102,0.0022275,53.2177,13.5719,54.8585,265.4207,-0.0056018,-0.01216681,0.0,0 STARLINK-4174,1 53276U 22086AL  22211.58334491 -.01216681  00000-0 -56018-2 0  9995,2 53276  53.2177  13.5719 0022275  54.8585 265.4207 15.85197102  1308,6693.906999999997,90.84,330.682,300.861,0.0
53276.0,STARLINK-4174,PAYLOAD,2022-07-30 22:00:00,15.84287512,0.0019609,53.2174,11.8953,55.8322,7.25,-0.0055991,-0.01163303,0.0,0 STARLINK-4174,1 53276U 22086AL  22211.91667824 -.01163303  00000-0 -55991-2 0  9992,2 53276  53.2174  11.8953 0019609  55.8322   7.2500 15.84287512  1631,6696.469,90.893,331.465,305.203,0.0
53276.0,STARLINK-4174,PAYLOAD,2022-07-31 14:00:01,15.82568123,0.0012758,53.2175,8.5448,51.3668,214.1216,-0.0065091,-0.01245237,0.0,0 STARLINK-4174,1 53276U 22086AL  22212.58334491 -.01245237  00000-0 -65091-2 0  9996,2 53276  53.2175   8.5448 0012758  51.3668 214.1216 15.82568123  1301,6701.318,90.991,331.733,314.634,0.0
53276.0,STARLINK-4174,PAYLOAD,2022-07-31 22:00:00,15.816687900000002,0.0009381,53.2171,6.8747,48.7015,316.4184,-0.0065949,-0.01208351,0.0,0 STARLINK-4174,1 53276U 22086AL  22212.91667824 -.01208351  00000-0 -65949-2 0  9990,2 53276  53.2171   6.8747 0009381  48.7015 316.4184 15.81668790  1304,6703.858,91.043,332.01199999999994,319.434,0.0
53276.0,STARLINK-4174,PAYLOAD,2022-08-01 14:00:01,15.79917961,0.0004833,53.2178,3.5371,32.1134,169.0867,-0.0072375,-0.01215963,0.0,0 STARLINK-4174,1 53276U 22086AL  22213.58334491 -.01215963  00000-0 -72375-2 0  9993,2 53276  53.2178   3.5371 0004833  32.1134 169.0867 15.79917961  1308,6708.81,91.144,333.917,327.432,0.0
53276.0,STARLINK-4174,PAYLOAD,2022-08-01 22:00:00,15.79039723,0.0003308999999999,53.2172,1.8732,10.5785,287.0774,-0.0075381,-0.01215134,0.0,0 STARLINK-4174,1 53276U 22086AL  22213.91667824 -.01215134  00000-0 -75381-2 0  9999,2 53276  53.2172   1.8732 0003309  10.5785 287.0774 15.79039723  1302,6711.297,91.195,335.3830000000001,330.941,0.0
53276.0,STARLINK-4174,PAYLOAD,2022-08-02 14:00:01,15.77276069,0.0003454,53.2173,358.5490000000001,6.3084,121.0961,-0.0080933,-0.01205559,0.0,0 STARLINK-4174,1 53276U 22086AL  22214.58334491 -.01205559  00000-0 -80933-2 0  9993,2 53276  53.2173 358.5490 0003454   6.3084 121.0961 15.77276069  2054,6716.299,91.297,340.4840000000001,335.844,0.0
53276.0,STARLINK-4174,PAYLOAD,2022-08-03 06:00:00,15.75514636,0.0003388,53.2174,355.233,349.6517,323.2763,-0.0087016,-0.01198963,0.0,0 STARLINK-4174,1 53276U 22086AL  22215.25001157 -.01198963  00000-0 -87016-2 0  9997,2 53276  53.2174 355.2330 0003388 349.6517 323.2763 15.75514636  2152,6721.304,91.399,345.446,340.892,0.0
53276.0,STARLINK-4174,PAYLOAD,2022-08-03 14:00:01,15.74640541,0.0002190999999999,53.2177,353.5803,238.4203,165.6807,-0.0090929,-0.01204064,0.0,0 STARLINK-4174,1 53276U 22086AL  22215.58334491 -.01204064  00000-0 -90929-2 0  9990,2 53276  53.2177 353.5803 0002191 238.4203 165.6807 15.74640541  2217,6723.791,91.449,347.129,344.18300000000005,0.0
53276.0,STARLINK-4174,PAYLOAD,2022-08-03 22:00:01,15.73630803,0.0002872,53.2172,351.9288,282.9531,211.3471,-0.0040782,-0.00547557,0.0,0 STARLINK-4174,1 53276U 22086AL  22215.91668981 -.00547557  00000-0 -40782-2 0  9999,2 53276  53.2172 351.9288 0002872 282.9531 211.3471 15.73630803  2265,6726.667,91.508,350.464,346.6,0.0
53276.0,STARLINK-4174,PAYLOAD,2022-08-04 06:00:00,15.73203446,0.0001535,53.2172,350.2768,293.4236,290.0176,1.1293e-05,9.65e-06,0.0,0 STARLINK-4174,1 53276U 22086AL  22216.25001157  .00000965  00000-0  11293-4 0  9995,2 53276  53.2172 350.2768 0001535 293.4236 290.0176 15.73203446  2315,6727.885,91.533,350.783,348.718,0.0
53276.0,STARLINK-4174,PAYLOAD,2022-08-04 14:00:01,15.73203488,0.0001537,53.2173,348.6288,298.4529,13.9214,1.234e-05,1.112e-05,0.0,0 STARLINK-4174,1 53276U 22086AL  22216.58334491  .00001112  00000-0  12340-4 0  9990,2 53276  53.2173 348.6288 0001537 298.4529  13.9214 15.73203488  1305,6727.885,91.533,350.784,348.716,0.0
53276.0,STARLINK-4174,PAYLOAD,2022-08-04 22:00:00,15.73294421,0.0002004,53.2198,346.9842,293.8478,107.4051,-0.00057444,-0.00080802,0.0,0 STARLINK-4174,1 53276U 22086AL  22216.91667824 -.00080802  00000-0 -57444-3 0  9994,2 53276  53.2198 346.9842 0002004 293.8478 107.4051 15.73294421  1306,6727.626,91.528,350.839,348.14300000000014,0.0
53276.0,STARLINK-4174,PAYLOAD,2022-08-05 12:00:00,15.73276545,0.0001648,53.2202,344.0968,298.6708,168.2968,-0.00081976,-0.00114494,0.0,0 STARLINK-4174,1 53276U 22086AL  22217.50001157 -.00114494  00000-0 -81976-3 0  9993,2 53276  53.2202 344.0968 0001648 298.6708 168.2968 15.73276545  2515,6727.677,91.529,350.651,348.43300000000005,0.0
53276.0,STARLINK-4174,PAYLOAD,2022-08-05 14:00:01,15.73247326,0.0001663,53.22,343.6849,303.2006,276.0874,-0.00062145,-0.00087118,0.0,0 STARLINK-4174,1 53276U 22086AL  22217.58335648 -.00087118  00000-0 -62145-3 0  9995,2 53276  53.2200 343.6849 0001663 303.2006 276.0874 15.73247326  1302,6727.76,91.53,350.744,348.506,0.0
53276.0,STARLINK-4174,PAYLOAD,2022-08-05 22:00:00,15.73234951,0.0001696,53.2194,342.0355,308.8449,359.3416,-0.00020175,-0.00028881,0.0,0 STARLINK-4174,1 53276U 22086AL  22217.91667824 -.00028881  00000-0 -20175-3 0  9995,2 53276  53.2194 342.0355 0001696 308.8449 359.3416 15.73234951  2574,6727.795999999999,91.531,350.802,348.519,0.0
53276.0,STARLINK-4174,PAYLOAD,2022-08-06 06:00:00,15.73202624,0.0001419,53.2172,340.3793,308.8392,88.2082,1.2891e-05,1.19e-05,0.0,0 STARLINK-4174,1 53276U 22086AL  22218.25001157  .00001190  00000-0  12891-4 0  9993,2 53276  53.2172 340.3793 0001419 308.8392  88.2082 15.73202624  2633,6727.888000000001,91.533,350.707,348.798,0.0
53276.0,STARLINK-4174,PAYLOAD,2022-08-06 14:00:01,15.73207184,0.0001528,53.2196,338.7366,316.2966,169.7909,6.9366e-05,9.128e-05,0.0,0 STARLINK-4174,1 53276U 22086AL  22218.58334491  .00009128  00000-0  69366-4 0  9997,2 53276  53.2196 338.7366 0001528 316.2966 169.7909 15.73207184  2681,6727.875,91.533,350.76800000000014,348.712,0.0
53276.0,STARLINK-4174,PAYLOAD,2022-08-06 21:05:24,15.7312833,0.0001645,53.2202,337.2732,338.5246,21.5705,-0.00052625,-0.0007361,0.0,0 STARLINK-4174,1 53276U 22086AL  22218.87876111 -.00073610  00000-0 -52625-3 0  9997,2 53276  53.2202 337.2732 0001645 338.5246  21.5705 15.73128330  2907,6728.1,91.537,351.071,348.858,0.0
53276.0,STARLINK-4174,PAYLOAD,2022-08-07 12:20:11,15.73222356,0.0001591,53.22,334.1301,327.9384,32.1539,0.00010864,0.00014668,0.0,0 STARLINK-4174,1 53276U 22086AL  22219.51402570  .00014668  00000-0  10864-3 0  9998,2 53276  53.2200 334.1301 0001591 327.9384  32.1539 15.73222356  3006,6727.831,91.532,350.767,348.626,0.0
53276.0,STARLINK-4174,PAYLOAD,2022-08-07 21:29:04,15.73250903,0.0001517,53.22,332.2437,330.5048,29.5886,0.00032814,0.00045784,0.0,0 STARLINK-4174,1 53276U 22086AL  22219.89518810  .00045784  00000-0  32814-3 0  9996,2 53276  53.2200 332.2437 0001517 330.5048  29.5886 15.73250903  3060,6727.75,91.53,350.636,348.594,0.0
53276.0,STARLINK-4174,PAYLOAD,2022-08-07 22:00:00,15.73200579,0.0001591,53.2195,332.1384,341.9963,139.8578,-3.076e-05,-4.935e-05,0.0,0 STARLINK-4174,1 53276U 22086AL  22219.91667824 -.00004935  00000-0 -30760-4 0  9993,2 53276  53.2195 332.1384 0001591 341.9963 139.8578 15.73200579  2894,6727.894,91.533,350.829,348.68800000000016,0.0
53276.0,STARLINK-4174,PAYLOAD,2022-08-08 06:00:00,15.73201594,0.0001382,53.2196,330.4874,340.4993,230.2999,0.00064373,0.0009071,0.0,0 STARLINK-4174,1 53276U 22086AL  22220.25001157  .00090710  00000-0  64373-3 0  9993,2 53276  53.2196 330.4874 0001382 340.4993 230.2999 15.73201594  2942,6727.891,91.533,350.685,348.826,0.0
53276.0,STARLINK-4174,PAYLOAD,2022-08-08 12:43:51,15.732981900000002,0.000153,53.2201,329.1002,0.6208,359.4814,0.00060109,0.00084955,0.0,0 STARLINK-4174,1 53276U 22086AL  22220.53045879  .00084955  00000-0  60109-3 0  9990,2 53276  53.2201 329.1002 0001530   0.6208 359.4814 15.73298190  3169,6727.615,91.527,350.51,348.451,0.0
